[
  {
    "raw_address": "105 Main St, Anytown, IN 46832",
    "street": "696 Main St",
    "city": "Anytown",
    "state": "IN",
    "zip_code": "46193"
  },
  {
    "raw_address": "598 Main St, Anytown, IN 46610",
    "street": "495 Main St",
    "city": "Anytown",
    "state": "IN",
    "zip_code": "46036"
  },
  {
    "raw_address": "109 Main St, Anytown, IN 46913",
    "street": "893 Main St",
    "city": "Anytown",
    "state": "IN",
    "zip_code": "46800"
  },
  {
    "raw_address": "481 Main St, Anytown, IN 46431",
    "street": "218 Main St",
    "city": "Anytown",
    "state": "IN",
    "zip_code": "46320"
  },
  {
    "raw_address": "358 Main St, Anytown, IN 46565",
    "street": "212 Main St",
    "city": "Anytown",
    "state": "IN",
    "zip_code": "46283"
  },
  {
    "raw_address": "346 Main St, Anytown, IN 46097",
    "street": "691 Main St",
    "city": "Anytown",
    "state": "IN",
    "zip_code": "46497"
  },
  {
    "raw_address": "221 Main St, Anytown, IN 46788",
    "street": "666 Main St",
    "city": "Anytown",
    "state": "IN",
    "zip_code": "46130"
  },
  {
    "raw_address": "721 Main St, Anytown, IN 46296",
    "street": "399 Main St",
    "city": "Anytown",
    "state": "IN",
    "zip_code": "46803"
  },
  {
    "raw_address": "108 Main St, Anytown, IN 46101",
    "street": "364 Main St",
    "city": "Anytown",
    "state": "IN",
    "zip_code": "46053"
  },
  {
    "raw_address": "850 Main St, Anytown, IN 46168",
    "street": "967 Main St",
    "city": "Anytown",
    "state": "IN",
    "zip_code": "46217"
  },
  {
    "raw_address": "477 Main St, Anytown, IN 46583",
    "street": "734 Main St",
    "city": "Anytown",
    "state": "IN",
    "zip_code": "46506"
  },
  {
    "raw_address": "231 Main St, Anytown, IN 46729",
    "street": "296 Main St",
    "city": "Anytown",
    "state": "IN",
    "zip_code": "46448"
  },
  {
    "raw_address": "697 Main St, Anytown, IN 46458",
    "street": "699 Main St",
    "city": "Anytown",
    "state": "IN",
    "zip_code": "46125"
  },
  {
    "raw_address": "429 Main St, Anytown, IN 46596",
    "street": "268 Main St",
    "city": "Anytown",
    "state": "IN",
    "zip_code": "46155"
  },
  {
    "raw_address": "528 Main St, Anytown, IN 46234",
    "street": "592 Main St",
    "city": "Anytown",
    "state": "IN",
    "zip_code": "46793"
  },
  {
    "raw_address": "868 Main St, Anytown, IN 46890",
    "street": "293 Main St",
    "city": "Anytown",
    "state": "IN",
    "zip_code": "46707"
  },
  {
    "raw_address": "914 Main St, Anytown, IN 46317",
    "street": "481 Main St",
    "city": "Anytown",
    "state": "IN",
    "zip_code": "46000"
  },
  {
    "raw_address": "369 Main St, Anytown, IN 46821",
    "street": "751 Main St",
    "city": "Anytown",
    "state": "IN",
    "zip_code": "46018"
  },
  {
    "raw_address": "102 Main St, Anytown, IN 46771",
    "street": "895 Main St",
    "city": "Anytown",
    "state": "IN",
    "zip_code": "46221"
  },
  {
    "raw_address": "365 Main St, Anytown, IN 46388",
    "street": "339 Main St",
    "city": "Anytown",
    "state": "IN",
    "zip_code": "46229"
  },
  {
    "raw_address": "345 Main St, Anytown, IN 46469",
    "street": "188 Main St",
    "city": "Anytown",
    "state": "IN",
    "zip_code": "46321"
  },
  {
    "raw_address": "714 Main St, Anytown, IN 46271",
    "street": "650 Main St",
    "city": "Anytown",
    "state": "IN",
    "zip_code": "46038"
  },
  {
    "raw_address": "559 Main St, Anytown, IN 46443",
    "street": "319 Main St",
    "city": "Anytown",
    "state": "IN",
    "zip_code": "46526"
  },
  {
    "raw_address": "580 Main St, Anytown, IN 46375",
    "street": "920 Main St",
    "city": "Anytown",
    "state": "IN",
    "zip_code": "46609"
  },
  {
    "raw_address": "388 Main St, Anytown, IN 46075",
    "street": "136 Main St",
    "city": "Anytown",
    "state": "IN",
    "zip_code": "46028"
  },
  {
    "raw_address": "427 Main St, Anytown, IN 46862",
    "street": "238 Main St",
    "city": "Anytown",
    "state": "IN",
    "zip_code": "46623"
  },
  {
    "raw_address": "286 Main St, Anytown, IN 46504",
    "street": "675 Main St",
    "city": "Anytown",
    "state": "IN",
    "zip_code": "46029"
  },
  {
    "raw_address": "772 Main St, Anytown, IN 46774",
    "street": "273 Main St",
    "city": "Anytown",
    "state": "IN",
    "zip_code": "46944"
  },
  {
    "raw_address": "721 Main St, Anytown, IN 46072",
    "street": "784 Main St",
    "city": "Anytown",
    "state": "IN",
    "zip_code": "46024"
  },
  {
    "raw_address": "212 Main St, Anytown, IN 46995",
    "street": "315 Main St",
    "city": "Anytown",
    "state": "IN",
    "zip_code": "46493"
  },
  {
    "raw_address": "365 Main St, Anytown, IN 46162",
    "street": "378 Main St",
    "city": "Anytown",
    "state": "IN",
    "zip_code": "46628"
  },
  {
    "raw_address": "518 Main St, Anytown, IN 46596",
    "street": "194 Main St",
    "city": "Anytown",
    "state": "IN",
    "zip_code": "46738"
  },
  {
    "raw_address": "291 Main St, Anytown, IN 46199",
    "street": "516 Main St",
    "city": "Anytown",
    "state": "IN",
    "zip_code": "46905"
  },
  {
    "raw_address": "259 Main St, Anytown, IN 46460",
    "street": "785 Main St",
    "city": "Anytown",
    "state": "IN",
    "zip_code": "46015"
  },
  {
    "raw_address": "548 Main St, Anytown, IN 46654",
    "street": "491 Main St",
    "city": "Anytown",
    "state": "IN",
    "zip_code": "46987"
  },
  {
    "raw_address": "786 Main St, Anytown, IN 46821",
    "street": "318 Main St",
    "city": "Anytown",
    "state": "IN",
    "zip_code": "46643"
  },
  {
    "raw_address": "961 Main St, Anytown, IN 46762",
    "street": "546 Main St",
    "city": "Anytown",
    "state": "IN",
    "zip_code": "46410"
  },
  {
    "raw_address": "470 Main St, Anytown, IN 46962",
    "street": "804 Main St",
    "city": "Anytown",
    "state": "IN",
    "zip_code": "46506"
  },
  {
    "raw_address": "868 Main St, Anytown, IN 46061",
    "street": "135 Main St",
    "city": "Anytown",
    "state": "IN",
    "zip_code": "46697"
  },
  {
    "raw_address": "716 Main St, Anytown, IN 46260",
    "street": "375 Main St",
    "city": "Anytown",
    "state": "IN",
    "zip_code": "46359"
  },
  {
    "raw_address": "182 Main St, Anytown, IN 46540",
    "street": "463 Main St",
    "city": "Anytown",
    "state": "IN",
    "zip_code": "46402"
  },
  {
    "raw_address": "668 Main St, Anytown, IN 46694",
    "street": "993 Main St",
    "city": "Anytown",
    "state": "IN",
    "zip_code": "46903"
  },
  {
    "raw_address": "919 Main St, Anytown, IN 46431",
    "street": "679 Main St",
    "city": "Anytown",
    "state": "IN",
    "zip_code": "46883"
  },
  {
    "raw_address": "477 Main St, Anytown, IN 46903",
    "street": "539 Main St",
    "city": "Anytown",
    "state": "IN",
    "zip_code": "46238"
  },
  {
    "raw_address": "292 Main St, Anytown, IN 46624",
    "street": "245 Main St",
    "city": "Anytown",
    "state": "IN",
    "zip_code": "46011"
  },
  {
    "raw_address": "421 Main St, Anytown, IN 46692",
    "street": "664 Main St",
    "city": "Anytown",
    "state": "IN",
    "zip_code": "46648"
  },
  {
    "raw_address": "119 Main St, Anytown, IN 46057",
    "street": "838 Main St",
    "city": "Anytown",
    "state": "IN",
    "zip_code": "46292"
  },
  {
    "raw_address": "645 Main St, Anytown, IN 46987",
    "street": "969 Main St",
    "city": "Anytown",
    "state": "IN",
    "zip_code": "46089"
  },
  {
    "raw_address": "652 Main St, Anytown, IN 46565",
    "street": "191 Main St",
    "city": "Anytown",
    "state": "IN",
    "zip_code": "46930"
  },
  {
    "raw_address": "426 Main St, Anytown, IN 46313",
    "street": "946 Main St",
    "city": "Anytown",
    "state": "IN",
    "zip_code": "46669"
  }
]